YUNYAO-1 18             
1 58758U 24009A   24040.46701663  .00032370  00000+0  11905-2 0  9993
2 58758  49.9923  27.1079 0014340  50.9673 309.2558 15.27457810  4465
YUNYAO-1 19             
1 58759U 24009B   24040.46759782  .00032149  00000+0  11840-2 0  9991
2 58759  49.9861  27.0964 0014008  51.5210 308.7001 15.27420290  4474
YUNYAO-1 20             
1 58760U 24009C   24040.46586381  .00032561  00000+0  11955-2 0  9991
2 58760  49.9922  27.1007 0014115  53.4399 306.7854 15.27513763  4473
GRAVITY-1 R/B           
1 58761U 24009D   24040.11597250  .00075972  12109-4  42504-3 0  9997
2 58761  49.8520  20.3863 0153361 107.4236 254.3567 15.64445440  4521
STARLINK-31127          
1 58765U 24011A   24040.25002315  .00073960  00000+0  26580-2 0  9994
2 58765  53.1608 210.6427 0001104 112.6121 162.4110 15.27998922  5169
STARLINK-31114          
1 58766U 24011B   24040.25002315 -.00056595  00000+0 -20445-2 0  9996
2 58766  53.1605 210.6385 0001382 110.8003 166.2583 15.28046315  5164
STARLINK-31140          
1 58767U 24011C   24040.58334491  .00023402  00000+0  85457-3 0  9990
2 58767  53.1601 209.0486 0001517  92.3620 243.0296 15.28031313  5329
STARLINK-31145          
1 58768U 24011D   24040.58334491  .00021717  00000+0  79393-3 0  9990
2 58768  53.1600 209.0450 0001021  70.3949 266.8518 15.28039536  5224
STARLINK-31146          
1 58769U 24011E   24040.58334491 -.00035757  00000+0 -12835-2 0  9999
2 58769  53.1600 208.9976 0000931  98.8501 262.4240 15.28045656  5330
STARLINK-31143          
1 58770U 24011F   24040.58334491 -.00005250  00000+0 -17706-3 0  9999
2 58770  53.1600 208.9932 0001263  91.0467 272.2330 15.28010289  5220
STARLINK-31135          
1 58771U 24011G   24040.58334491 -.00022046  00000+0 -78565-3 0  9992
2 58771  53.1600 208.9462 0001190 110.1910 276.8637 15.28019185  5217
STARLINK-31136          
1 58772U 24011H   24040.58334491 -.00004227  00000+0 -14009-3 0  9997
2 58772  53.1597 208.9424 0001537 104.2059 284.7122 15.28007492  5332
STARLINK-31073          
1 58773U 24011J   24040.25002315 -.02187890  00000+0 -80389-1 0  9991
2 58773  53.1593 210.4440 0000898  99.2336 275.5806 15.31014818  5178
STARLINK-31122          
1 58774U 24011K   24040.25002315 -.02187649  00000+0 -80221-1 0  9999
2 58774  53.1593 210.4407 0000830  92.3936 284.1385 15.31078076  5273
STARLINK-31123          
1 58775U 24011L   24040.58334491 -.02402756  00000+0 -89453-1 0  9994
2 58775  53.1594 208.8496 0000540 100.1124 335.5539 15.30963126  5224
STARLINK-31117          
1 58776U 24011M   24040.25002315 -.02184219  00000+0 -76378-1 0  9999
2 58776  53.1593 210.3980 0000936 111.4062 286.5151 15.32578332  5166
STARLINK-31132          
1 58777U 24011N   24040.25002315  .00047319  00000+0  12081-2 0  9997
2 58777  53.1591 210.3433 0000386  48.2501  17.6507 15.39045694  5279
STARLINK-31120          
1 58778U 24011P   24040.25002315 -.02191806  00000+0 -69778-1 0  9997
2 58778  53.1592 210.3261 0000807 108.1585 325.8612 15.35525412  5173
STARLINK-31142          
1 58779U 24011Q   24040.25002315 -.02190194  00000+0 -73024-1 0  9996
2 58779  53.1594 210.3585 0000892 100.2782 317.3052 15.34084653  5272
STARLINK-31103          
1 58780U 24011R   24040.25002315 -.02191177  00000+0 -69617-1 0  9993
2 58780  53.1592 210.3229 0000623  96.1962 339.3234 15.35588445  5176
STARLINK-31099          
1 58781U 24011S   24040.16667824 -.02228454  00000+0 -66645-1 0  9993
2 58781  53.1591 210.6823 0000851 106.3146 243.9025 15.37507060  5152
STARLINK-31060          
1 58782U 24011T   24040.25002315 -.02175521  00000+0 -53474-1 0  9994
2 58782  53.1598 209.7032 0000665  74.3447 311.4629 15.43888973  5188
STARLINK-31047          
1 58783U 24011U   24040.58334491 -.00429418  00000+0 -16275-1 0  9997
2 58783  53.1603 208.5836 0001139  95.8322 111.3585 15.28281327  5228
STARLINK-31039          
1 58784U 24011V   24040.16667824 -.02231466  00000+0 -63771-1 0  9990
2 58784  53.1592 210.6563 0000840  97.2765 266.0813 15.38894080  5153
STARLINK-31034          
1 58785U 24011W   24040.58334491 -.00015117  00000+0 -31955-3 0  9990
2 58785  53.1605 207.6735 0001397  89.0198 209.0078 15.43863588  5237
STARLINK-31024          
1 58786U 24011X   24040.16667824 -.02213572  00000+0 -63203-1 0  9990
2 58786  53.1592 210.6521 0001109  85.5608 279.5803 15.38891077  5155
STARLINK-31189          
1 58787U 24012A   24040.25002315 -.02195421  00000+0 -63514-1 0  9997
2 58787  43.0002 126.7261 0001166 278.2352 172.6909 15.38245589  5036
STARLINK-31185          
1 58788U 24012B   24040.25002315 -.02197180  00000+0 -62202-1 0  9995
2 58788  43.0004 126.7113 0001186 278.7518 178.2363 15.38904758  5188
STARLINK-31166          
1 58789U 24012C   24040.58334491  .00087135  00000+0  15660-2 0  9996
2 58789  43.0002 124.6736 0001150 280.8481 276.2956 15.48876293  5099
STARLINK-31187          
1 58790U 24012D   24040.58334491 -.02372555  00000+0 -68385-1 0  9996
2 58790  43.0004 124.7693 0001290 303.4826 214.3906 15.38636261  5249
STARLINK-31162          
1 58791U 24012E   24040.25002315 -.02180613  00000+0 -68798-1 0  9998
2 58791  43.0000 126.8200 0001947 269.3852 141.8611 15.35560446  5190
STARLINK-31194          
1 58792U 24012F   24039.66667824  .00129404  00000+0  20178-2 0  9992
2 58792  43.0006 129.2167 0003222 255.4863 186.9763 15.52674665  5176
STARLINK-31184          
1 58793U 24012G   24040.25002315 -.02199814  00000+0 -55797-1 0  9998
2 58793  43.0004 126.6494 0000817 268.0273 214.2944 15.42195874  5097
STARLINK-31192          
1 58794U 24012H   24040.25002315  .00158869  00000+0  28304-2 0  9995
2 58794  43.0000 126.6058 0001400 242.8643 257.6496 15.48811925  5046
STARLINK-31161          
1 58795U 24012J   24040.25002315 -.02167783  00000+0 -53533-1 0  9996
2 58795  43.0002 126.6306 0001074 275.5068 214.6226 15.43515653  5189
STARLINK-31195          
1 58796U 24012K   24040.58334491 -.02190585  00000+0 -54803-1 0  9993
2 58796  43.0003 124.6962 0000890 279.6701 268.0517 15.42587930  5240
STARLINK-31193          
1 58797U 24012L   24040.25002315 -.02168467  00000+0 -51183-1 0  9997
2 58797  43.0004 126.6146 0001138 275.5334 221.0785 15.44832140  5188
STARLINK-31168          
1 58798U 24012M   24040.25002315 -.02167240  00000+0 -50003-1 0  9996
2 58798  43.0003 126.6073 0000975 273.7888 225.5680 15.45489362  5187
STARLINK-31154          
1 58799U 24012N   24040.58334491  .00080851  00000+0  14548-2 0  9999
2 58799  43.0002 124.6300 0001216 284.4477 289.5463 15.48873723  5146
STARLINK-31191          
1 58800U 24012P   24040.25002315 -.02167600  00000+0 -48884-1 0  9994
2 58800  43.0002 126.6015 0000845 260.6102 241.1579 15.46147207  5031
STARLINK-31170          
1 58801U 24012Q   24040.58334491 -.02153710  00000+0 -50116-1 0  9992
2 58801  43.0002 124.6621 0000817 285.8506 275.3487 15.45220693  5249
STARLINK-31173          
1 58802U 24012R   24040.44932218  .00162219  19544-4  27379-3 0  9994
2 58802  42.9971 120.4641 0004346 282.1602  77.8790 16.02048473  5270
STARLINK-31141          
1 58803U 24012S   24040.25002315 -.02175009  00000+0 -44731-1 0  9996
2 58803  43.0003 126.5851 0000584 273.6035 234.4891 15.48784226  5189
STARLINK-31188          
1 58804U 24012T   24040.58334491 -.02156618  00000+0 -47944-1 0  9990
2 58804  43.0001 124.6505 0001008 277.4770 288.4690 15.46537312  5246
STARLINK-31105          
1 58805U 24012U   24040.58334491 -.02129461  00000+0 -45166-1 0  9991
2 58805  43.0002 124.6420 0000562 291.7218 277.6541 15.47833790  5092
STARLINK-31138          
1 58806U 24012V   24040.58334491 -.00068916  00000+0 -12495-2 0  9997
2 58806  43.0000 124.6394 0001533 286.9551 283.6621 15.48947705  5242
STARLINK-31163          
1 58807U 24012W   24040.58334491 -.02151832  00000+0 -43577-1 0  9994
2 58807  43.0001 124.6368 0000913 260.7541 310.6941 15.49175248  5247
STARLINK-31174          
1 58808U 24012X   24040.58334491 -.01527712  00000+0 -30074-1 0  9996
2 58808  43.0001 124.6344 0000861 261.9524 310.2764 15.49378014  5243
STARLINK-31169          
1 58809U 24012Y   24040.58334491 -.00545527  00000+0 -10487-1 0  9996
2 58809  43.0000 124.6326 0001349 244.3851 328.7342 15.49124831  5245
NANOFF A                
1 58810U 23185T   24037.79505981  .00003574  00000+0  27746-3 0  9998
2 58810  97.6379 106.5711 0012807  23.0754 117.4059 15.01917793  3266
TIANZHOU-7              
1 58811U 24013A   24039.62442183  .00042076  00000+0  44602-3 0  9998
2 58811  41.4682 154.7632 0008051 327.2143  32.8197 15.63285152158815
CZ-7 DEB                
1 58813U 24013C   24018.11402078 -.00002294  72670-5  00000+0 0  9997
2 58813  41.8298 285.9373 0234014 181.6233 328.2070 15.73710950    93
CZ-7 DEB                
1 58814U 24013D   24018.11444661 -.00002240  70950-5  00000+0 0  9992
2 58814  41.6413 286.0086 0240306 187.1577 323.2676 15.72861586    84
AXIOM-3                 
1 58815U 24014A   24039.92163385  .00264044  11140-4  37601-3 0  9994
2 58815  51.6367 235.6049 0141439  54.4858 306.9245 15.88607036  3266
DALIAN-1 LIANLI         
1 58816U 23063C   24038.36877740  .00133128  00000+0  11155-2 0  9993
2 58816  41.4667 161.7785 0011905 272.1556 121.1718 15.68660070  3099
SORAYA                  
1 58817U 24015A   24040.42876217  .00000278  00000+0  11717-3 0  9994
2 58817  64.5136  54.2189 0011181 257.6841 102.2993 14.41912120  2913
QAEM 100 R/B            
1 58818U 24015B   24040.13212959  .00000480  00000+0  17378-3 0  9994
2 58818  64.5028  54.9261 0012380 290.1100  69.8653 14.43309545  2873
QAEM 100 DEB            
1 58819U 24015C   24028.55774234  .00054227  00000+0  15623-1 0  9993
2 58819  64.4782  88.5570 0010930 314.2129  45.8058 14.44281846  1162
